start=new Date('2022-04-10T00:00:00.000Z').valueOf();
sats=[{"MEAN_ELEMENT_THEORY":"SGP4","BSTAR":"0.00034580000000","SITE":"AFETR","NORAD_CAT_ID":"52137","EPHEMERIS_TYPE":"0","RCS_SIZE":"LARGE","TIME_SYSTEM":"UTC","ARG_OF_PERICENTER":"99.3874","OBJECT_TYPE":"PAYLOAD","MEAN_MOTION_DOT":"0.00048112","PERIOD":"91.535","COUNTRY_CODE":"US","LAUNCH_DATE":"2022-03-19","TLE_LINE2":"2 52137  53.2178  36.5481 0000967  99.3874 176.4445 15.73162984  3713","PERIAPSIS":"349.215","CENTER_NAME":"EARTH","OBJECT_NAME":"STARLINK-3733","OBJECT_ID":"2022-029BB","RA_OF_ASC_NODE":"36.5481","FILE":"3395351","MEAN_MOTION":"15.73162984","ELEMENT_SET_NO":"999","MEAN_ANOMALY":"176.4445","SEMIMAJOR_AXIS":"6728.001","MEAN_MOTION_DDOT":"0.0000000000000","CLASSIFICATION_TYPE":"U","REV_AT_EPOCH":"371","EPOCH":"2022-04-09T22:00:00.999936","APOAPSIS":"350.516","ECCENTRICITY":"0.00009670","GP_ID":"200866255","DECAY_DATE":null,"TLE_LINE1":"1 52137U 22029BB  22099.91667824  .00048112  00000-0  34580-3 0  9997","INCLINATION":"53.2178","REF_FRAME":"TEME"},{"SITE":"AFETR","MEAN_ELEMENT_THEORY":"SGP4","BSTAR":"0.00034902000000","RCS_SIZE":"MEDIUM","TIME_SYSTEM":"UTC","EPHEMERIS_TYPE":"0","NORAD_CAT_ID":"52138","ARG_OF_PERICENTER":"106.3543","OBJECT_TYPE":"PAYLOAD","MEAN_MOTION_DOT":"0.00048570","PERIOD":"91.535","COUNTRY_CODE":"US","TLE_LINE2":"2 52138  53.2179  36.5514 0001423 106.3543 168.3483 15.73163910  3714","PERIAPSIS":"348.906","CENTER_NAME":"EARTH","LAUNCH_DATE":"2022-03-19","OBJECT_NAME":"STARLINK-3723","FILE":"3395351","ELEMENT_SET_NO":"999","MEAN_ANOMALY":"168.3483","MEAN_MOTION":"15.73163910","RA_OF_ASC_NODE":"36.5514","OBJECT_ID":"2022-029BC","SEMIMAJOR_AXIS":"6727.998","CLASSIFICATION_TYPE":"U","MEAN_MOTION_DDOT":"0.0000000000000","EPOCH":"2022-04-09T22:00:00.999936","REV_AT_EPOCH":"371","APOAPSIS":"350.820","DECAY_DATE":null,"GP_ID":"200866476","ECCENTRICITY":"0.00014230","TLE_LINE1":"1 52138U 22029BC  22099.91667824  .00048570  00000-0  34902-3 0  9994","INCLINATION":"53.2179","REF_FRAME":"TEME"},{"FILE":"3395351","ELEMENT_SET_NO":"999","MEAN_MOTION":"15.73145056","MEAN_ANOMALY":"345.2169","RA_OF_ASC_NODE":"36.1755","OBJECT_ID":"2022-029BD","SEMIMAJOR_AXIS":"6728.052","MEAN_MOTION_DDOT":"0.0000000000000","CLASSIFICATION_TYPE":"U","EPOCH":"2022-04-09T22:00:00.999936","REV_AT_EPOCH":"373","APOAPSIS":"350.717","DECAY_DATE":null,"GP_ID":"200865999","ECCENTRICITY":"0.00011890","REF_FRAME":"TEME","TLE_LINE1":"1 52139U 22029BD  22099.91667824  .00052928  00000-0  38005-3 0  9995","INCLINATION":"53.2169","SITE":"AFETR","BSTAR":"0.00038005000000","MEAN_ELEMENT_THEORY":"SGP4","TIME_SYSTEM":"UTC","RCS_SIZE":"LARGE","NORAD_CAT_ID":"52139","EPHEMERIS_TYPE":"0","ARG_OF_PERICENTER":"111.9876","MEAN_MOTION_DOT":"0.00052928","OBJECT_TYPE":"PAYLOAD","PERIOD":"91.536","COUNTRY_CODE":"US","CENTER_NAME":"EARTH","PERIAPSIS":"349.117","TLE_LINE2":"2 52139  53.2169  36.1755 0001189 111.9876 345.2169 15.73145056  3737","LAUNCH_DATE":"2022-03-19","OBJECT_NAME":"STARLINK-3730"},{"REF_FRAME":"TEME","TLE_LINE1":"1 52140U 22029BE  22099.91667824  .00171960  00000-0  12088-2 0  9997","INCLINATION":"53.2179","DECAY_DATE":null,"GP_ID":"200866158","ECCENTRICITY":"0.00011160","APOAPSIS":"350.736","EPOCH":"2022-04-09T22:00:00.999936","REV_AT_EPOCH":"371","CLASSIFICATION_TYPE":"U","MEAN_MOTION_DDOT":"0.0000000000000","SEMIMAJOR_AXIS":"6728.120","MEAN_ANOMALY":"166.9258","FILE":"3395351","ELEMENT_SET_NO":"999","MEAN_MOTION":"15.73121074","OBJECT_ID":"2022-029BE","RA_OF_ASC_NODE":"36.5467","OBJECT_NAME":"STARLINK-3682","TLE_LINE2":"2 52140  53.2179  36.5467 0001116 109.9313 166.9258 15.73121074  3716","PERIAPSIS":"349.234","CENTER_NAME":"EARTH","LAUNCH_DATE":"2022-03-19","COUNTRY_CODE":"US","PERIOD":"91.538","OBJECT_TYPE":"PAYLOAD","MEAN_MOTION_DOT":"0.00171960","ARG_OF_PERICENTER":"109.9313","TIME_SYSTEM":"UTC","RCS_SIZE":"LARGE","EPHEMERIS_TYPE":"0","NORAD_CAT_ID":"52140","SITE":"AFETR","MEAN_ELEMENT_THEORY":"SGP4","BSTAR":"0.00120880000000"}];
